ORBCOMM FM33            
1 25983U 99065D   24309.78673026  .00005446  00000+0  17994-2 0  9993
2 25983  45.0291 344.9556 0008528 356.3576   3.7209 14.38799695303732
ORBCOMM FM36            
1 25984U 99065E   24309.38562500  .00007931  00000+0  27034-2 0  9991
2 25984  45.0392  75.3154 0004910 239.6222 120.4141 14.36852113302077
ORBCOMM FM35            
1 25985U 99065F   24309.70566857  .00005826  00000+0  20300-2 0  9997
2 25985  45.0391  77.2173 0002489 327.3123  32.7571 14.36091804302505
ORBCOMM FM34            
1 25986U 99065G   24309.67750690  .00005604  00000+0  19533-2 0  9994
2 25986  45.0379  77.8927 0004200 276.0957  83.9412 14.36117659302614
ORBCOMM FM29            
1 33062U 08031C   24309.77479475  .00008405  00000+0  11509-2 0  9998
2 33062  48.4395 318.3688 0005676 137.1531  33.0675 14.79042569880907
ORBCOMM FM39            
1 33063U 08031D   24309.50194862  .00007298  00000+0  10321-2 0  9994
2 33063  48.4406 341.6503 0006497 109.2027 250.9590 14.77827267880548
