<?xml version="1.0" encoding="UTF-8"?>
<ndm xmlns:xsi="http://www.w3.org/2001/XMLSchema-instance" xsi:noNamespaceSchemaLocation="https://sanaregistry.org/r/ndmxml_unqualified/ndmxml-2.0.0-master-2.0.xsd">
<omm id="CCSDS_OMM_VERS" version="2.0">
<header><CREATION_DATE/><ORIGINATOR/></header><body><segment><metadata><OBJECT_NAME>ORBCOMM FM33</OBJECT_NAME><OBJECT_ID>1999-065D</OBJECT_ID><CENTER_NAME>EARTH</CENTER_NAME><REF_FRAME>TEME</REF_FRAME><TIME_SYSTEM>UTC</TIME_SYSTEM><MEAN_ELEMENT_THEORY>SGP4</MEAN_ELEMENT_THEORY></metadata><data><meanElements><EPOCH>2024-11-04T18:52:53.494464</EPOCH><MEAN_MOTION>14.38799695</MEAN_MOTION><ECCENTRICITY>.0008528</ECCENTRICITY><INCLINATION>45.0291</INCLINATION><RA_OF_ASC_NODE>344.9556</RA_OF_ASC_NODE><ARG_OF_PERICENTER>356.3576</ARG_OF_PERICENTER><MEAN_ANOMALY>3.7209</MEAN_ANOMALY></meanElements><tleParameters><EPHEMERIS_TYPE>0</EPHEMERIS_TYPE><CLASSIFICATION_TYPE>U</CLASSIFICATION_TYPE><NORAD_CAT_ID>25983</NORAD_CAT_ID><ELEMENT_SET_NO>999</ELEMENT_SET_NO><REV_AT_EPOCH>30373</REV_AT_EPOCH><BSTAR>.17994E-2</BSTAR><MEAN_MOTION_DOT>.5446E-4</MEAN_MOTION_DOT><MEAN_MOTION_DDOT>0</MEAN_MOTION_DDOT></tleParameters></data></segment></body></omm>
<omm id="CCSDS_OMM_VERS" version="2.0">
<header><CREATION_DATE/><ORIGINATOR/></header><body><segment><metadata><OBJECT_NAME>ORBCOMM FM36</OBJECT_NAME><OBJECT_ID>1999-065E</OBJECT_ID><CENTER_NAME>EARTH</CENTER_NAME><REF_FRAME>TEME</REF_FRAME><TIME_SYSTEM>UTC</TIME_SYSTEM><MEAN_ELEMENT_THEORY>SGP4</MEAN_ELEMENT_THEORY></metadata><data><meanElements><EPOCH>2024-11-04T09:15:18.000000</EPOCH><MEAN_MOTION>14.36852113</MEAN_MOTION><ECCENTRICITY>.000491</ECCENTRICITY><INCLINATION>45.0392</INCLINATION><RA_OF_ASC_NODE>75.3154</RA_OF_ASC_NODE><ARG_OF_PERICENTER>239.6222</ARG_OF_PERICENTER><MEAN_ANOMALY>120.4141</MEAN_ANOMALY></meanElements><tleParameters><EPHEMERIS_TYPE>0</EPHEMERIS_TYPE><CLASSIFICATION_TYPE>U</CLASSIFICATION_TYPE><NORAD_CAT_ID>25984</NORAD_CAT_ID><ELEMENT_SET_NO>999</ELEMENT_SET_NO><REV_AT_EPOCH>30207</REV_AT_EPOCH><BSTAR>.27034E-2</BSTAR><MEAN_MOTION_DOT>.7931E-4</MEAN_MOTION_DOT><MEAN_MOTION_DDOT>0</MEAN_MOTION_DDOT></tleParameters></data></segment></body></omm>
<omm id="CCSDS_OMM_VERS" version="2.0">
<header><CREATION_DATE/><ORIGINATOR/></header><body><segment><metadata><OBJECT_NAME>ORBCOMM FM35</OBJECT_NAME><OBJECT_ID>1999-065F</OBJECT_ID><CENTER_NAME>EARTH</CENTER_NAME><REF_FRAME>TEME</REF_FRAME><TIME_SYSTEM>UTC</TIME_SYSTEM><MEAN_ELEMENT_THEORY>SGP4</MEAN_ELEMENT_THEORY></metadata><data><meanElements><EPOCH>2024-11-04T16:56:09.764448</EPOCH><MEAN_MOTION>14.36091804</MEAN_MOTION><ECCENTRICITY>.0002489</ECCENTRICITY><INCLINATION>45.0391</INCLINATION><RA_OF_ASC_NODE>77.2173</RA_OF_ASC_NODE><ARG_OF_PERICENTER>327.3123</ARG_OF_PERICENTER><MEAN_ANOMALY>32.7571</MEAN_ANOMALY></meanElements><tleParameters><EPHEMERIS_TYPE>0</EPHEMERIS_TYPE><CLASSIFICATION_TYPE>U</CLASSIFICATION_TYPE><NORAD_CAT_ID>25985</NORAD_CAT_ID><ELEMENT_SET_NO>999</ELEMENT_SET_NO><REV_AT_EPOCH>30250</REV_AT_EPOCH><BSTAR>.203E-2</BSTAR><MEAN_MOTION_DOT>.5826E-4</MEAN_MOTION_DOT><MEAN_MOTION_DDOT>0</MEAN_MOTION_DDOT></tleParameters></data></segment></body></omm>
<omm id="CCSDS_OMM_VERS" version="2.0">
<header><CREATION_DATE/><ORIGINATOR/></header><body><segment><metadata><OBJECT_NAME>ORBCOMM FM34</OBJECT_NAME><OBJECT_ID>1999-065G</OBJECT_ID><CENTER_NAME>EARTH</CENTER_NAME><REF_FRAME>TEME</REF_FRAME><TIME_SYSTEM>UTC</TIME_SYSTEM><MEAN_ELEMENT_THEORY>SGP4</MEAN_ELEMENT_THEORY></metadata><data><meanElements><EPOCH>2024-11-04T16:15:36.596160</EPOCH><MEAN_MOTION>14.36117659</MEAN_MOTION><ECCENTRICITY>.00042</ECCENTRICITY><INCLINATION>45.0379</INCLINATION><RA_OF_ASC_NODE>77.8927</RA_OF_ASC_NODE><ARG_OF_PERICENTER>276.0957</ARG_OF_PERICENTER><MEAN_ANOMALY>83.9412</MEAN_ANOMALY></meanElements><tleParameters><EPHEMERIS_TYPE>0</EPHEMERIS_TYPE><CLASSIFICATION_TYPE>U</CLASSIFICATION_TYPE><NORAD_CAT_ID>25986</NORAD_CAT_ID><ELEMENT_SET_NO>999</ELEMENT_SET_NO><REV_AT_EPOCH>30261</REV_AT_EPOCH><BSTAR>.19533E-2</BSTAR><MEAN_MOTION_DOT>.5604E-4</MEAN_MOTION_DOT><MEAN_MOTION_DDOT>0</MEAN_MOTION_DDOT></tleParameters></data></segment></body></omm>
<omm id="CCSDS_OMM_VERS" version="2.0">
<header><CREATION_DATE/><ORIGINATOR/></header><body><segment><metadata><OBJECT_NAME>ORBCOMM FM29</OBJECT_NAME><OBJECT_ID>2008-031C</OBJECT_ID><CENTER_NAME>EARTH</CENTER_NAME><REF_FRAME>TEME</REF_FRAME><TIME_SYSTEM>UTC</TIME_SYSTEM><MEAN_ELEMENT_THEORY>SGP4</MEAN_ELEMENT_THEORY></metadata><data><meanElements><EPOCH>2024-11-04T18:35:42.266400</EPOCH><MEAN_MOTION>14.79042569</MEAN_MOTION><ECCENTRICITY>.0005676</ECCENTRICITY><INCLINATION>48.4395</INCLINATION><RA_OF_ASC_NODE>318.3688</RA_OF_ASC_NODE><ARG_OF_PERICENTER>137.1531</ARG_OF_PERICENTER><MEAN_ANOMALY>33.0675</MEAN_ANOMALY></meanElements><tleParameters><EPHEMERIS_TYPE>0</EPHEMERIS_TYPE><CLASSIFICATION_TYPE>U</CLASSIFICATION_TYPE><NORAD_CAT_ID>33062</NORAD_CAT_ID><ELEMENT_SET_NO>999</ELEMENT_SET_NO><REV_AT_EPOCH>88090</REV_AT_EPOCH><BSTAR>.11509E-2</BSTAR><MEAN_MOTION_DOT>.8405E-4</MEAN_MOTION_DOT><MEAN_MOTION_DDOT>0</MEAN_MOTION_DDOT></tleParameters></data></segment></body></omm>
<omm id="CCSDS_OMM_VERS" version="2.0">
<header><CREATION_DATE/><ORIGINATOR/></header><body><segment><metadata><OBJECT_NAME>ORBCOMM FM39</OBJECT_NAME><OBJECT_ID>2008-031D</OBJECT_ID><CENTER_NAME>EARTH</CENTER_NAME><REF_FRAME>TEME</REF_FRAME><TIME_SYSTEM>UTC</TIME_SYSTEM><MEAN_ELEMENT_THEORY>SGP4</MEAN_ELEMENT_THEORY></metadata><data><meanElements><EPOCH>2024-11-04T12:02:48.360768</EPOCH><MEAN_MOTION>14.77827267</MEAN_MOTION><ECCENTRICITY>.0006497</ECCENTRICITY><INCLINATION>48.4406</INCLINATION><RA_OF_ASC_NODE>341.6503</RA_OF_ASC_NODE><ARG_OF_PERICENTER>109.2027</ARG_OF_PERICENTER><MEAN_ANOMALY>250.9590</MEAN_ANOMALY></meanElements><tleParameters><EPHEMERIS_TYPE>0</EPHEMERIS_TYPE><CLASSIFICATION_TYPE>U</CLASSIFICATION_TYPE><NORAD_CAT_ID>33063</NORAD_CAT_ID><ELEMENT_SET_NO>999</ELEMENT_SET_NO><REV_AT_EPOCH>88054</REV_AT_EPOCH><BSTAR>.10321E-2</BSTAR><MEAN_MOTION_DOT>.7298E-4</MEAN_MOTION_DOT><MEAN_MOTION_DDOT>0</MEAN_MOTION_DDOT></tleParameters></data></segment></body></omm>

</ndm>
